[{"OBJECT_NAME":"SUOMI-100","OBJECT_ID":"2018-099AY","EPOCH":"2026-03-09T16:23:06.300384","MEAN_MOTION":15.25995383,"ECCENTRICITY":0.00089691,"INCLINATION":97.4315,"RA_OF_ASC_NODE":129.5602,"ARG_OF_PERICENTER":269.9465,"MEAN_ANOMALY":90.0745,"EPHEMERIS_TYPE":0,"CLASSIFICATION_TYPE":"U","NORAD_CAT_ID":43804,"ELEMENT_SET_NO":999,"REV_AT_EPOCH":39823,"BSTAR":0.00054773118,"MEAN_MOTION_DOT":0.00014037,"MEAN_MOTION_DDOT":0},{"OBJECT_NAME":"STARLINK-31871","OBJECT_ID":"2024-084V","EPOCH":"2026-03-09T07:03:35.020512","MEAN_MOTION":15.27566683,"ECCENTRICITY":4.782e-5,"INCLINATION":43.0001,"RA_OF_ASC_NODE":43.9358,"ARG_OF_PERICENTER":237.1288,"MEAN_ANOMALY":122.9518,"EPHEMERIS_TYPE":0,"CLASSIFICATION_TYPE":"U","NORAD_CAT_ID":59673,"ELEMENT_SET_NO":999,"REV_AT_EPOCH":10431,"BSTAR":-6.424609e-6,"MEAN_MOTION_DOT":-4.38e-6,"MEAN_MOTION_DDOT":0}]
